$$SOE
2459580.500000000, A.D. 2022-Jan-01 00:00:00.0000, 2.126123977318181E+08, -4.039854172456587E+08, -1.242677301757157E+07,
2459587.500000000, A.D. 2022-Jan-08 00:00:00.0000, 2.209173279622848E+08, -3.982195325548533E+08, -1.290401285237223E+07,
2459594.500000000, A.D. 2022-Jan-15 00:00:00.0000, 2.291089475799207E+08, -3.922491534017026E+08, -1.337462691946644E+07,
2459601.500000000, A.D. 2022-Jan-22 00:00:00.0000, 2.371821853459794E+08, -3.860758500008934E+08, -1.383832290249440E+07,
2459608.500000000, A.D. 2022-Jan-29 00:00:00.0000, 2.451319522657951E+08, -3.797013124898633E+08, -1.429480735893238E+07,
2459615.500000000, A.D. 2022-Feb-05 00:00:00.0000, 2.529531416880987E+08, -3.731273545481467E+08, -1.474378570646623E+07,
2459622.500000000, A.D. 2022-Feb-12 00:00:00.0000, 2.606406317465916E+08, -3.663559181031823E+08, -1.518496250426172E+07,
2459629.500000000, A.D. 2022-Feb-19 00:00:00.0000, 2.681892888264869E+08, -3.593890767473957E+08, -1.561804171451797E+07,
2459636.500000000, A.D. 2022-Feb-26 00:00:00.0000, 2.755939707516749E+08, -3.522290385831217E+08, -1.604272688365154E+07,
2459643.500000000, A.D. 2022-Mar-05 00:00:00.0000, 2.828495298584470E+08, -3.448781491048467E+08, -1.645872130875659E+07,
2459650.500000000, A.D. 2022-Mar-12 00:00:00.0000, 2.899508161841598E+08, -3.373388941762810E+08, -1.686572821571593E+07,
2459657.500000000, A.D. 2022-Mar-19 00:00:00.0000, 2.968926808482355E+08, -3.296139030653225E+08, -1.726345095385824E+07,
2459664.500000000, A.D. 2022-Mar-26 00:00:00.0000, 3.036699796537635E+08, -3.217059515330748E+08, -1.765159321036345E+07,
2459671.500000000, A.D. 2022-Apr-02 00:00:00.0000, 3.102775769829444E+08, -3.136179650216876E+08, -1.802985925584731E+07,
2459678.500000000, A.D. 2022-Apr-09 00:00:00.0000, 3.167103502642286E+08, -3.053530219239287E+08, -1.839795424627306E+07,
2459685.500000000, A.D. 2022-Apr-16 00:00:00.0000, 3.229631953750441E+08, -2.969143562682892E+08, -1.875558456098163E+07,
2459692.500000000, A.D. 2022-Apr-23 00:00:00.0000, 3.290310317178028E+08, -2.883053587242997E+08, -1.910245797223265E+07,
2459699.500000000, A.D. 2022-Apr-30 00:00:00.0000, 3.349088051032844E+08, -2.795295781615030E+08, -1.943828365857908E+07,
2459706.500000000, A.D. 2022-May-07 00:00:00.0000, 3.405914915066162E+08, -2.705907257210636E+08, -1.976277250463600E+07,
2459713.500000000, A.D. 2022-May-14 00:00:00.0000, 3.460741030881062E+08, -2.614926783464131E+08, -2.007563756664145E+07,
2459720.500000000, A.D. 2022-May-21 00:00:00.0000, 3.513516944499828E+08, -2.522394809991979E+08, -2.037659445560698E+07,
2459727.500000000, A.D. 2022-May-28 00:00:00.0000, 3.564193686502078E+08, -2.428353485029241E+08, -2.066536167248905E+07,
2459734.500000000, A.D. 2022-Jun-04 00:00:00.0000, 3.612722832491657E+08, -2.332846673083825E+08, -2.094166094628386E+07,
2459741.500000000, A.D. 2022-Jun-11 00:00:00.0000, 3.659056565329199E+08, -2.235919971581745E+08, -2.120521758802967E+07,
2459748.500000000, A.D. 2022-Jun-18 00:00:00.0000, 3.703147739517515E+08, -2.137620726163947E+08, -2.145576086308281E+07,
2459755.500000000, A.D. 2022-Jun-25 00:00:00.0000, 3.744949948033782E+08, -2.037998044770703E+08, -2.169302438697903E+07,
2459762.500000000, A.D. 2022-Jul-02 00:00:00.0000, 3.784417592927552E+08, -1.937102810981074E+08, -2.191674656238128E+07,
2459769.500000000, A.D. 2022-Jul-09 00:00:00.0000, 3.821505963540299E+08, -1.834987694636623E+08, -2.212667107810280E+07,
2459776.500000000, A.D. 2022-Jul-16 00:00:00.0000, 3.856171321742954E+08, -1.731707148711793E+08, -2.232254737609795E+07,
2459783.500000000, A.D. 2022-Jul-23 00:00:00.0000, 3.888370972149160E+08, -1.627317391457854E+08, -2.250413087777679E+07,
2459790.500000000, A.D. 2022-Jul-30 00:00:00.0000, 3.918063318042153E+08, -1.521876407162052E+08, -2.267118325078025E+07,
2459797.500000000, A.D. 2022-Aug-06 00:00:00.0000, 3.945207938864193E+08, -1.415443958813090E+08, -2.282347299251347E+07,
2459804.500000000, A.D. 2022-Aug-13 00:00:00.0000, 3.969765680900955E+08, -1.308081584895387E+08, -2.296077602881180E+07,
2459811.500000000, A.D. 2022-Aug-20 00:00:00.0000, 3.991698745324714E+08, -1.199852585126891E+08, -2.308287622381434E+07,
2459818.500000000, A.D. 2022-Aug-27 00:00:00.0000, 4.010970774110369E+08, -1.090822002193949E+08, -2.318956586544649E+07,
2459825.500000000, A.D. 2022-Sep-03 00:00:00.0000, 4.027546936110048E+08, -9.810566003791976E+07, -2.328064615692193E+07,
2459832.500000000, A.D. 2022-Sep-10 00:00:00.0000, 4.041394013969808E+08, -8.706248406365350E+07, -2.335592771906025E+07,
2459839.500000000, A.D. 2022-Sep-17 00:00:00.0000, 4.052480491944155E+08, -7.595968519278304E+07, -2.341523110464736E+07,
2459846.500000000, A.D. 2022-Sep-24 00:00:00.0000, 4.060776644954976E+08, -6.480443991354258E+07, -2.345838733290245E+07,
2459853.500000000, A.D. 2022-Oct-01 00:00:00.0000, 4.066254631011921E+08, -5.360408475895533E+07, -2.348523846630168E+07,
2459860.500000000, A.D. 2022-Oct-08 00:00:00.0000, 4.068888590757871E+08, -4.236611188078978E+07, -2.349563822282721E+07,
2459867.500000000, A.D. 2022-Oct-15 00:00:00.0000, 4.068654744521337E+08, -3.109816252763667E+07, -2.348945243846104E+07,
2459874.500000000, A.D. 2022-Oct-22 00:00:00.0000, 4.065531464782999E+08, -1.980802009795402E+07, -2.346655931594002E+07,
2459881.500000000, A.D. 2022-Oct-29 00:00:00.0000, 4.059499348704853E+08, -8.503605353500940E+06, -2.342684989943312E+07,
2459888.500000000, A.D. 2022-Nov-05 00:00:00.0000, 4.050541311328948E+08, 2.807028955816253E+06, -2.337022874187572E+07,
2459895.500000000, A.D. 2022-Nov-12 00:00:00.0000, 4.038642679410933E+08, 1.411570532933451E+07, -2.329661447906886E+07,
2459902.500000000, A.D. 2022-Nov-19 00:00:00.0000, 4.023791278303590E+08, 2.541412966413438E+07, -2.320594032032502E+07,
2459909.500000000, A.D. 2022-Nov-26 00:00:00.0000, 4.005977514104048E+08, 3.669389991710365E+07, -2.309815450985667E+07,
2459916.500000000, A.D. 2022-Dec-03 00:00:00.0000, 3.985194452301986E+08, 4.794651526579807E+07, -2.297322077263134E+07,
2459923.500000000, A.D. 2022-Dec-10 00:00:00.0000, 3.961437892952179E+08, 5.916338578039035E+07, -2.283111874480199E+07,
2459930.500000000, A.D. 2022-Dec-17 00:00:00.0000, 3.934706442183431E+08, 7.033584257193400E+07, -2.267184439044226E+07,
2459937.500000000, A.D. 2022-Dec-24 00:00:00.0000, 3.905001580704206E+08, 8.145514833746541E+07, -2.249541041745481E+07,
2459944.500000000, A.D. 2022-Dec-31 00:00:00.0000, 3.872327732443376E+08, 9.251250839106065E+07, -2.230184671421301E+07,
2459951.500000000, A.D. 2023-Jan-07 00:00:00.0000, 3.836692334090925E+08, 1.034990831209937E+08, -2.209120073694367E+07,
2459958.500000000, A.D. 2023-Jan-14 00:00:00.0000, 3.798105885421448E+08, 1.144060023471964E+08, -2.186353762395778E+07,
2459965.500000000, A.D. 2023-Jan-21 00:00:00.0000, 3.756581973585223E+08, 1.252243783793644E+08, -2.161894023457103E+07,
2459972.500000000, A.D. 2023-Jan-28 00:00:00.0000, 3.712137307669479E+08, 1.359453175440525E+08, -2.135750946328145E+07,
2459979.500000000, A.D. 2023-Feb-04 00:00:00.0000, 3.664791761028130E+08, 1.465599331686502E+08, -2.107936456040347E+07,
2459986.500000000, A.D. 2023-Feb-11 00:00:00.0000, 3.614568403033002E+08, 1.570593597863108E+08, -2.078464330797612E+07,
2459993.500000000, A.D. 2023-Feb-18 00:00:00.0000, 3.561493519238775E+08, 1.674347676929924E+08, -2.047350211019211E+07,
2460000.500000000, A.D. 2023-Feb-25 00:00:00.0000, 3.505596622235165E+08, 1.776773776476290E+08, -2.014611603353986E+07,
2460007.500000000, A.D. 2023-Mar-04 00:00:00.0000, 3.446910453903067E+08, 1.877784756866327E+08, -1.980267880260991E+07,
2460014.500000000, A.D. 2023-Mar-11 00:00:00.0000, 3.385470979127491E+08, 1.977294280040192E+08, -1.944340275267145E+07,
2460021.500000000, A.D. 2023-Mar-18 00:00:00.0000, 3.321317371272507E+08, 2.075216957949623E+08, -1.906851874631783E+07,
2460028.500000000, A.D. 2023-Mar-25 00:00:00.0000, 3.254491991336938E+08, 2.171468499587262E+08, -1.867827607596019E+07,
2460035.500000000, A.D. 2023-Apr-01 00:00:00.0000, 3.185040364957342E+08, 2.265965859931984E+08, -1.827294235856210E+07,
2460042.500000000, A.D. 2023-Apr-08 00:00:00.0000, 3.113011151026828E+08, 2.358627402407780E+08, -1.785280326563200E+07,
2460049.500000000, A.D. 2023-Apr-15 00:00:00.0000, 3.038456078496636E+08, 2.449373063172554E+08, -1.741816196370588E+07,
2460056.500000000, A.D. 2023-Apr-22 00:00:00.0000, 2.961429869513654E+08, 2.538124486135113E+08, -1.696933868083344E+07,
2460063.500000000, A.D. 2023-Apr-29 00:00:00.0000, 2.881990176364040E+08, 2.624805150590516E+08, -1.650667046686852E+07,
2460070.500000000, A.D. 2023-May-06 00:00:00.0000, 2.800197514739434E+08, 2.709340508640975E+08, -1.603051084134088E+07,
2460077.500000000, A.D. 2023-May-13 00:00:00.0000, 2.716115183737773E+08, 2.791658122858042E+08, -1.554122931339447E+07,
2460084.500000000, A.D. 2023-May-20 00:00:00.0000, 2.629809175187798E+08, 2.871687798684789E+08, -1.503921083698584E+07,
2460091.500000000, A.D. 2023-May-27 00:00:00.0000, 2.541348074533409E+08, 2.949361710709392E+08, -1.452485522347599E+07,
2460098.500000000, A.D. 2023-Jun-03 00:00:00.0000, 2.450802954203340E+08, 3.024614522518139E+08, -1.399857651706657E+07,
2460105.500000000, A.D. 2023-Jun-10 00:00:00.0000, 2.358247260099259E+08, 3.097383499466999E+08, -1.346080233894402E+07,
2460112.500000000, A.D. 2023-Jun-17 00:00:00.0000, 2.263756692531312E+08, 3.167608613283141E+08, -1.291197321599762E+07,
2460119.500000000, A.D. 2023-Jun-24 00:00:00.0000, 2.167409085284383E+08, 3.235232638609251E+08, -1.235254192196427E+07,
2460126.500000000, A.D. 2023-Jul-01 00:00:00.0000, 2.069284285880721E+08, 3.300201249367484E+08, -1.178297278999272E+07,
2460133.500000000, A.D. 2023-Jul-08 00:00:00.0000, 1.969464020853391E+08, 3.362463122762216E+08, -1.120374077937411E+07,
2460140.500000000, A.D. 2023-Jul-15 00:00:00.0000, 1.868031733793799E+08, 3.421970022279680E+08, -1.061533041336215E+07,
2460147.500000000, A.D. 2023-Jul-22 00:00:00.0000, 1.765072431990259E+08, 3.478676849126960E+08, -1.001823499911334E+07,
$$EOE